{
    "week": 291,
    "satellites": [
        {
            "Name": "BEIDOU-2 G6 (C02)",
            "Line1": "1 38953U 12059A   24309.37190937 -.00000155  00000+0  00000+0 0  9992",
            "Line2": "2 38953   2.9147  79.3339 0006683 295.2079 247.5163  1.00270284 43991",
            "SatelliteNumber": "38953",
            "Classification": "U",
            "LaunchYear": "12",
            "LaunchNumber": "059",
            "PieceOfLaunch": "A",
            "EpochYear": "24",
            "EpochDay": 309.37190937,
            "FirstDerivativeMeanMotion": -1.55e-06,
            "SecondDerivativeMeanMotion": "00000+0",
            "BSTAR": "00000+0",
            "SetNumber": "999",
            "Inclination": 2.9147,
            "RAAN": 79.3339,
            "Eccentricity": 0.0006683,
            "ArgumentOfPerigee": 295.2079,
            "MeanAnomaly": 247.5163,
            "MeanMotion": 1.00270284,
            "RevolutionNumber": "4399"
        },
        {
            "Name": "BEIDOU-3S IGSO-1S (C31)",
            "Line1": "1 40549U 15019A   24309.44603235 -.00000170  00000+0  00000+0 0  9990",
            "Line2": "2 40549  50.3147 302.5294 0035702 198.9260 160.2642  1.00273935 35156",
            "SatelliteNumber": "40549",
            "Classification": "U",
            "LaunchYear": "15",
            "LaunchNumber": "019",
            "PieceOfLaunch": "A",
            "EpochYear": "24",
            "EpochDay": 309.44603235,
            "FirstDerivativeMeanMotion": -1.7e-06,
            "SecondDerivativeMeanMotion": "00000+0",
            "BSTAR": "00000+0",
            "SetNumber": "999",
            "Inclination": 50.3147,
            "RAAN": 302.5294,
            "Eccentricity": 0.0035702,
            "ArgumentOfPerigee": 198.926,
            "MeanAnomaly": 160.2642,
            "MeanMotion": 1.00273935,
            "RevolutionNumber": "3515"
        },
        {
            "Name": "BEIDOU-3S M2S (C58)",
            "Line1": "1 40748U 15037A   24309.20805592 -.00000049  00000+0  00000+0 0  9990",
            "Line2": "2 40748  55.3732 322.2691 0013241 256.4687 103.4157  1.86229250 63133",
            "SatelliteNumber": "40748",
            "Classification": "U",
            "LaunchYear": "15",
            "LaunchNumber": "037",
            "PieceOfLaunch": "A",
            "EpochYear": "24",
            "EpochDay": 309.20805592,
            "FirstDerivativeMeanMotion": -4.9e-07,
            "SecondDerivativeMeanMotion": "00000+0",
            "BSTAR": "00000+0",
            "SetNumber": "999",
            "Inclination": 55.3732,
            "RAAN": 322.2691,
            "Eccentricity": 0.0013241,
            "ArgumentOfPerigee": 256.4687,
            "MeanAnomaly": 103.4157,
            "MeanMotion": 1.8622925,
            "RevolutionNumber": "6313"
        },
        {
            "Name": "BEIDOU-3S M1S (C57)",
            "Line1": "1 40749U 15037B   24309.48114008 -.00000047  00000+0  00000+0 0  9994",
            "Line2": "2 40749  55.3758 322.2464 0003977 316.9443  43.0565  1.86227630 63140",
            "SatelliteNumber": "40749",
            "Classification": "U",
            "LaunchYear": "15",
            "LaunchNumber": "037",
            "PieceOfLaunch": "B",
            "EpochYear": "24",
            "EpochDay": 309.48114008,
            "FirstDerivativeMeanMotion": -4.7e-07,
            "SecondDerivativeMeanMotion": "00000+0",
            "BSTAR": "00000+0",
            "SetNumber": "999",
            "Inclination": 55.3758,
            "RAAN": 322.2464,
            "Eccentricity": 0.0003977,
            "ArgumentOfPerigee": 316.9443,
            "MeanAnomaly": 43.0565,
            "MeanMotion": 1.8622763,
            "RevolutionNumber": "6314"
        },
        {
            "Name": "BEIDOU-3S IGSO-2S (C56)",
            "Line1": "1 40938U 15053A   24309.57945997 -.00000137  00000+0  00000+0 0  9991",
            "Line2": "2 40938  50.1442 265.7635 0052008 190.0442 253.8384  1.00274265 33445",
            "SatelliteNumber": "40938",
            "Classification": "U",
            "LaunchYear": "15",
            "LaunchNumber": "053",
            "PieceOfLaunch": "A",
            "EpochYear": "24",
            "EpochDay": 309.57945997,
            "FirstDerivativeMeanMotion": -1.37e-06,
            "SecondDerivativeMeanMotion": "00000+0",
            "BSTAR": "00000+0",
            "SetNumber": "999",
            "Inclination": 50.1442,
            "RAAN": 265.7635,
            "Eccentricity": 0.0052008,
            "ArgumentOfPerigee": 190.0442,
            "MeanAnomaly": 253.8384,
            "MeanMotion": 1.00274265,
            "RevolutionNumber": "3344"
        },
        {
            "Name": "BEIDOU-2 IGSO-6 (C13)",
            "Line1": "1 41434U 16021A   24308.99820241 -.00000163  00000+0  00000+0 0  9997",
            "Line2": "2 41434  59.3876  43.9488 0054732 223.7889 231.1710  1.00287898 31565",
            "SatelliteNumber": "41434",
            "Classification": "U",
            "LaunchYear": "16",
            "LaunchNumber": "021",
            "PieceOfLaunch": "A",
            "EpochYear": "24",
            "EpochDay": 308.99820241,
            "FirstDerivativeMeanMotion": -1.63e-06,
            "SecondDerivativeMeanMotion": "00000+0",
            "BSTAR": "00000+0",
            "SetNumber": "999",
            "Inclination": 59.3876,
            "RAAN": 43.9488,
            "Eccentricity": 0.0054732,
            "ArgumentOfPerigee": 223.7889,
            "MeanAnomaly": 231.171,
            "MeanMotion": 1.00287898,
            "RevolutionNumber": "3156"
        },
        {
            "Name": "BEIDOU-2 G7 (C03)",
            "Line1": "1 41586U 16037A   24309.65053729 -.00000334  00000+0  00000+0 0  9995",
            "Line2": "2 41586   1.7136  66.7503 0007283 348.9448 333.4180  1.00276344   976",
            "SatelliteNumber": "41586",
            "Classification": "U",
            "LaunchYear": "16",
            "LaunchNumber": "037",
            "PieceOfLaunch": "A",
            "EpochYear": "24",
            "EpochDay": 309.65053729,
            "FirstDerivativeMeanMotion": -3.34e-06,
            "SecondDerivativeMeanMotion": "00000+0",
            "BSTAR": "00000+0",
            "SetNumber": "999",
            "Inclination": 1.7136,
            "RAAN": 66.7503,
            "Eccentricity": 0.0007283,
            "ArgumentOfPerigee": 348.9448,
            "MeanAnomaly": 333.418,
            "MeanMotion": 1.00276344,
            "RevolutionNumber": "97"
        },
        {
            "Name": "BEIDOU-3 M1 (C19)",
            "Line1": "1 43001U 17069A   24309.02015102  .00000007  00000+0  00000+0 0  9995",
            "Line2": "2 43001  56.1797  82.6097 0007491 299.5203  60.3842  1.86231340 47617",
            "SatelliteNumber": "43001",
            "Classification": "U",
            "LaunchYear": "17",
            "LaunchNumber": "069",
            "PieceOfLaunch": "A",
            "EpochYear": "24",
            "EpochDay": 309.02015102,
            "FirstDerivativeMeanMotion": 7e-08,
            "SecondDerivativeMeanMotion": "00000+0",
            "BSTAR": "00000+0",
            "SetNumber": "999",
            "Inclination": 56.1797,
            "RAAN": 82.6097,
            "Eccentricity": 0.0007491,
            "ArgumentOfPerigee": 299.5203,
            "MeanAnomaly": 60.3842,
            "MeanMotion": 1.8623134,
            "RevolutionNumber": "4761"
        },
        {
            "Name": "BEIDOU-3 M2 (C20)",
            "Line1": "1 43002U 17069B   24309.49466791  .00000010  00000+0  00000+0 0  9995",
            "Line2": "2 43002  56.1794  82.6294 0005300 335.2005  24.7542  1.86230940 47615",
            "SatelliteNumber": "43002",
            "Classification": "U",
            "LaunchYear": "17",
            "LaunchNumber": "069",
            "PieceOfLaunch": "B",
            "EpochYear": "24",
            "EpochDay": 309.49466791,
            "FirstDerivativeMeanMotion": 1e-07,
            "SecondDerivativeMeanMotion": "00000+0",
            "BSTAR": "00000+0",
            "SetNumber": "999",
            "Inclination": 56.1794,
            "RAAN": 82.6294,
            "Eccentricity": 0.00053,
            "ArgumentOfPerigee": 335.2005,
            "MeanAnomaly": 24.7542,
            "MeanMotion": 1.8623094,
            "RevolutionNumber": "4761"
        },
        {
            "Name": "BEIDOU-3 M7 (C27)",
            "Line1": "1 43107U 18003A   24309.24254759 -.00000051  00000+0  00000+0 0  9998",
            "Line2": "2 43107  54.8317 322.7974 0002194  70.6661 289.3904  1.86232510 46363",
            "SatelliteNumber": "43107",
            "Classification": "U",
            "LaunchYear": "18",
            "LaunchNumber": "003",
            "PieceOfLaunch": "A",
            "EpochYear": "24",
            "EpochDay": 309.24254759,
            "FirstDerivativeMeanMotion": -5.1e-07,
            "SecondDerivativeMeanMotion": "00000+0",
            "BSTAR": "00000+0",
            "SetNumber": "999",
            "Inclination": 54.8317,
            "RAAN": 322.7974,
            "Eccentricity": 0.0002194,
            "ArgumentOfPerigee": 70.6661,
            "MeanAnomaly": 289.3904,
            "MeanMotion": 1.8623251,
            "RevolutionNumber": "4636"
        }
    ]
}